STARLINK-6209
1 56877U 23083B   26105.82429858  .00002362  00000+0  95343-4 0  9999
2 56877  43.0021 235.1384 0002005 270.2658  89.7964 15.27574901157319
STARLINK-6182
1 56878U 23083C   26105.78823662  .00000827  00000+0  40515-4 0  9991
2 56878  43.0026 235.7227 0001625 283.8283  76.2388 15.26741718157309
STARLINK-5707
1 56879U 23083D   26105.67833043  .00000627  00000+0  33043-4 0  9990
2 56879  43.0017 236.6131 0001482 267.1947  92.8734 15.26740899157282
STARLINK-6177
1 56880U 23083E   26105.69533333  .00045287  00000+0  16979-2 0  9991
2 56880  43.0038 235.8906 0003589 304.6365  55.4147 15.26536663157295
STARLINK-5853
1 56881U 23083F   26105.66550320  .00000390  00000+0  24233-4 0  9994
2 56881  43.0016 236.5173 0001170 275.5093  84.5625 15.26741942157285
STARLINK-6175
1 56882U 23083G   26105.82676169  .00001478  00000+0  64772-4 0  9993
2 56882  43.0021 235.1536 0001945 264.4152  95.6477 15.26738262157316
STARLINK-6171
1 56883U 23083H   26105.82426764  .00000998  00000+0  46870-4 0  9993
2 56883  43.0018 235.1364 0001748 262.9679  97.0973 15.26744362157315
STARLINK-5515
1 56884U 23083J   26105.68695493  .00001783  00000+0  76111-4 0  9999
2 56884  43.0029 235.8240 0001910 272.7356  87.3276 15.26747478157296
STARLINK-5095
1 56885U 23083K   26105.68727743  .00001143  00000+0  52276-4 0  9990
2 56885  43.0008 235.8242 0001288 246.2750 113.7966 15.26738918157297
STARLINK-5496
1 56886U 23083L   26105.67503852  .00000536  00000+0  29667-4 0  9996
2 56886  43.0023 235.7323 0001374 270.8084  89.2609 15.26740166157292
STARLINK-6180
1 56887U 23083M   26105.69509003  .00002597  00000+0  16551-3 0  9999
2 56887  43.0027 238.4418 0001545 260.0160 100.0511 15.11058117157261
STARLINK-6181
1 56888U 23083N   26105.68589763  .00000361  00000+0  34209-4 0  9998
2 56888  43.0026 238.3699 0001313 269.9905  90.0790 15.11071015157268
STARLINK-6169
1 56889U 23083P   26105.69618416  .00002119  00000+0  88667-4 0  9998
2 56889  43.0014 235.8926 0001728 268.6383  91.4270 15.26740889157285
STARLINK-5528
1 56890U 23083Q   26105.81853257 -.00005043  00000+0 -28315-3 0  9992
2 56890  43.0026 237.6456 0001698 271.9117  88.1534 15.11100855157289
STARLINK-6213
1 56891U 23083R   26105.68098814  .00000486  00000+0  27789-4 0  9997
2 56891  43.0018 235.7755 0001527 258.5840 101.4840 15.26740483157290
STARLINK-6219
1 56892U 23083S   26105.69418826  .00000039  00000+0  15302-4 0  9990
2 56892  43.0023 238.4255 0001491 257.8736 102.1943 15.11074791157263
STARLINK-6216
1 56893U 23083T   26105.69655918  .00000488  00000+0  28529-4 0  9999
2 56893  43.0039 235.8889 0002013 261.6892  98.3731 15.25897099157419
STARLINK-6144
1 56894U 23083U   26105.68535925  .00000864  00000+0  63728-4 0  9992
2 56894  43.0018 238.3643 0001378 266.6557  93.4131 15.11067836157388
STARLINK-6208
1 56895U 23083V   26105.70035736 -.00000089  00000+0  77440-5 0  9998
2 56895  43.0020 238.4736 0001328 256.4180 103.6517 15.11069487157263
STARLINK-6202
1 56896U 23083W   26105.69341414  .00000567  00000+0  46285-4 0  9992
2 56896  43.0016 238.4205 0001269 271.6752  88.3948 15.11071704157372
STARLINK-6200
1 56897U 23083X   26105.68475826  .00000454  00000+0  39650-4 0  9990
2 56897  43.0020 238.3583 0001296 271.9953  88.0744 15.11073327157387
STARLINK-6205
1 56898U 23083Y   26105.66168170 -.00000088  00000+0  64036-5 0  9991
2 56898  43.0025 233.0723 0001155 272.5379  87.5340 15.26742299157433
STARLINK-6203
1 56899U 23083Z   26105.69397034  .00025369  00000+0  94953-3 0  9995
2 56899  42.9985 232.4586 0003426  92.2826 267.8418 15.26829270157438
STARLINK-6207
1 56900U 23083AA  26105.68219347  .00001658  00000+0  71467-4 0  9998
2 56900  43.0019 221.9412 0000949 255.4772 104.5974 15.26748702157425
STARLINK-6185
1 56901U 23083AB  26105.65604198  .00000842  00000+0  41056-4 0  9993
2 56901  43.0023 233.0297 0001086 270.2061  89.8666 15.26738287157436
STARLINK-6195
1 56902U 23083AC  26105.63135336 -.00000059  00000+0  73859-5 0  9993
2 56902  43.0009 222.4173 0001172 273.0931  86.9787 15.27582837157553
STARLINK-6192
1 56903U 23083AD  26105.63890897  .00000006  00000+0  97568-5 0  9998
2 56903  43.0019 232.9008 0001350 270.1549  89.9148 15.27577330157432
STARLINK-6193
1 56904U 23083AE  26105.61048503  .00000440  00000+0  26087-4 0  9995
2 56904  43.0021 222.2576 0001285 269.2701  90.8003 15.26741072157441
STARLINK-6183
1 56905U 23083AF  26105.31329067  .00001156  00000+0  51521-4 0  9996
2 56905  43.0026 223.4829 0001532 262.3420  97.7257 15.27575429157403
STARLINK-6098
1 56906U 23083AG  26105.64791302  .00000479  00000+0  26956-4 0  9999
2 56906  43.0026 221.6885 0001870 274.0499  86.0139 15.27576254157459
STARLINK-6110
1 56907U 23083AH  26105.91668981  .00039148  00000+0  14308-2 0  9997
2 56907  43.0021 220.1221 0000671 301.3350 119.9947 15.27438711  5901
STARLINK-6186
1 56908U 23083AJ  26105.59560017  .00000801  00000+0  39560-4 0  9996
2 56908  43.0022 222.1518 0002287 267.2742  92.7848 15.26739499157445
STARLINK-5999
1 56909U 23083AK  26105.63357616  .00000654  00000+0  34082-4 0  9991
2 56909  43.0024 222.4313 0001267 275.2495  84.8212 15.26734462157559
STARLINK-6179
1 56910U 23083AL  26105.60436941  .00000220  00000+0  17530-4 0  9997
2 56910  43.0022 222.2120 0001519 268.1463  91.9215 15.27576053157439
STARLINK-6116
1 56911U 23083AM  26105.58628618 -.00001084  00000+0 -30715-4 0  9990
2 56911  43.0035 222.0856 0002293 262.5410  97.5181 15.26749625157449
STARLINK-5805
1 56912U 23083AN  26105.60032951  .00000584  00000+0  31471-4 0  9995
2 56912  43.0011 222.1844 0001546 271.2607  88.8067 15.26741380157443
STARLINK-5950
1 56913U 23083AP  26105.64820196  .00000363  00000+0  23220-4 0  9994
2 56913  43.0037 221.6898 0001995 271.5185  88.5438 15.26741192157458
STARLINK-5961
1 56914U 23083AQ  26105.91668981 -.00001306  00000+0 -37906-4 0  9993
2 56914  43.0025 220.0449 0002017 284.1402 165.1780 15.27585932  5890
STARLINK-5965
1 56915U 23083AR  26105.65256706 -.00001091  00000+0 -30986-4 0  9995
2 56915  43.0025 221.7205 0001155 253.5947 106.4778 15.26732595157458
STARLINK-5973
1 56916U 23083AS  26105.64915446  .00002692  00000+0  11005-3 0  9994
2 56916  43.0035 221.6896 0001766 269.7603  90.3046 15.26731800157425
STARLINK-5971
1 56917U 23083AT  26105.60673002 -.00000554  00000+0 -10949-4 0  9994
2 56917  43.0013 222.2311 0001646 261.6089  98.4576 15.26743282157443
STARLINK-5951
1 56918U 23083AU  26105.05480365  .00002535  00000+0  10408-3 0  9990
2 56918  43.0028 224.9679 0001353 271.7284  88.3412 15.26761624157368
STARLINK-5966
1 56919U 23083AV  26105.62461791 -.00000172  00000+0  32595-5 0  9995
2 56919  43.0030 221.5036 0001285 274.5905  85.4799 15.26743799157456
STARLINK-5960
1 56920U 23083AW  26105.65873360  .00001519  00000+0  66291-4 0  9993
2 56920  43.0009 221.7569 0001484 246.6973 113.3723 15.26751789157459
STARLINK-5958
1 56921U 23083AX  26105.64659850  .00004711  00000+0  18050-3 0  9995
2 56921  43.0027 221.6705 0001905 258.0058 102.0580 15.27604299157450
STARLINK-5937
1 56922U 23083AY  26105.62471580  .00056700  00000+0  20776-2 0  9998
2 56922  43.0025 222.3551 0002060 284.9463  75.1160 15.27206605157449
STARLINK-5952
1 56923U 23083AZ  26105.64090690 -.00000324  00000+0 -23688-5 0  9991
2 56923  43.0027 221.6237 0002223 279.4701  80.5899 15.26747438157453
STARLINK-5731
1 56924U 23083BA  26105.61480083  .00000125  00000+0  14331-4 0  9999
2 56924  43.0020 222.2823 0001355 277.4872  82.5825 15.26740684157555
STARLINK-5733
1 56925U 23083BB  26105.66366007  .00001438  00000+0  63282-4 0  9991
2 56925  43.0013 221.7938 0001696 271.0112  89.0545 15.26743105157455
STARLINK-5746
1 56926U 23083BC  26105.91668981 -.00008702  00000+0 -30696-3 0  9991
2 56926  43.0010 220.4297 0001386 273.7655  12.8624 15.27589628  5873
STARLINK-5808
1 56927U 23083BD  26105.74993109  .00000271  00000+0  19781-4 0  9990
2 56927  43.0021 130.4259 0001335 274.6619  85.4079 15.26742438158517
OTTER PUP
1 56933U 23084B   26105.90293310  .00326797  48652-4  55968-3 0  9993
2 56933  97.5687 266.1388 0003422 252.9662 107.1243 16.02492500159414
GEISAT PRECURSOR
1 56934U 23084C   26105.93115311  .00005108  00000+0  15909-3 0  9992
2 56934  97.6123 244.9135 0005960 190.5358 169.5760 15.33734487157985
NUSAT-40 (C SHOEMAKER)
1 56943U 23084M   26105.90650353  .00045023  00000+0  43857-3 0  9992
2 56943  97.4800 248.0187 0003719 136.6712 223.4841 15.66124525159032
NUSAT-41 (C PAYNE-G)
1 56944U 23084N   26105.92089542  .00007678  00000+0  26559-3 0  9995
2 56944  97.5418 241.6736 0007463 175.3247 184.8064 15.30159709158265
GREGOIRE
1 56946U 23084Q   26105.93318606  .00005305  00000+0  15080-3 0  9996
2 56946  97.6146 247.4834 0007506 170.8093 189.3289 15.36600426158145
ICEYE-X30
1 56947U 23084R   26105.93777460  .00096854  00000+0  47125-3 0  9998
2 56947  97.5703 260.7033 0004899 197.2095 162.9008 15.82124200159093
BLACKJACK ACES-3
1 56950U 23084U   26105.62831256  .00002989  00000+0  14949-3 0  9996
2 56950  97.6106 240.3911 0002772 186.9288 173.1907 15.18221916157676
RUNNER-1 (TYVAK-1005)
1 56953U 23084X   26105.83249777  .00006407  00000+0  18207-3 0  9993
2 56953  97.6136 245.6601 0008497 168.5897 191.5541 15.36509066158021
BLACKJACK ACES-2
1 56955U 23084Z   26105.37016624  .00003840  00000+0  19084-3 0  9999
2 56955  97.6102 240.2199 0002768 141.2146 218.9287 15.18267042157642
BLACKJACK ACES-1
1 56956U 23084AA  26105.88634098  .00003744  00000+0  18604-3 0  9997
2 56956  97.6093 240.5186 0002533 126.1662 233.9806 15.18286009107447
ION SCV-011
1 56957U 23084AB  26105.94102458  .00003099  00000+0  11585-3 0  9999
2 56957  98.1376 287.4834 0006134 250.3926 109.6649 15.28219904156306
GHOST-3
1 56958U 23084AC  26105.93110806  .00011885  00000+0  24710-3 0  9991
2 56958  97.6125 251.2976 0007337 156.7839 203.3742 15.45786999158396
ORBITER SN3
1 56960U 23084AE  26105.90384050  .00005413  00000+0  16867-3 0  9999
2 56960  97.6169 244.7167 0008195 184.2723 175.8451 15.33680359157947
